OBJECT_NAME,OBJECT_ID,EPOCH,MEAN_MOTION,ECCENTRICITY,INCLINATION,RA_OF_ASC_NODE,ARG_OF_PERICENTER,MEAN_ANOMALY,EPHEMERIS_TYPE,CLASSIFICATION_TYPE,NORAD_CAT_ID,ELEMENT_SET_NO,REV_AT_EPOCH,BSTAR,MEAN_MOTION_DOT,MEAN_MOTION_DDOT,SEMIMAJOR_AXIS,SATELLITE_TYPE,ORBITAL_PERIOD,ORBITAL_PERIOD_HOURS,ALTITUDE,PERIGEE,APOGEE
CANX-2,2008-021H,2024-12-30T15:50:39.171840,14.99077033,0.0013596,97.7953,328.7501,48.4298,311.8088,0,U,32790,999,90476,0.0010983,0.00013317,0.0,6947.883712407913,CubeSat,5763.549569501919,1.600985991528311,576.8837124079128,6938.437369712523,6957.330055103303
BRITE-CA1 (TORONTO),2014-033L,2024-12-31T19:37:01.815168,14.70809683,0.0081266,97.9021,137.5091,179.8689,180.2553,0,U,40020,999,56390,0.00080422,5.121e-05,0.0,7036.621448168622,CubeSat,5874.318674986152,1.6317551874961531,665.621448168622,6979.437640307935,7093.805256029309
SWISSCUBE,2009-051B,2024-12-31T15:26:40.078752,14.60509912,0.0008256,98.4477,253.7997,69.3645,290.8439,0,U,35932,999,81136,0.0009843,4.731e-05,0.0,7069.665008161548,CubeSat,5915.745396322489,1.6432626100895802,698.665008161548,7063.82829273081,7075.501723592286
M2 PATHFINDER,2020-037E,2024-12-31T10:33:44.747136,15.00051406,0.0011662,97.7772,182.3437,161.3691,198.7961,0,U,45727,999,24548,0.00073378,9.096e-05,0.0,6944.874676236384,CubeSat,5759.805799746947,1.599946055485263,573.8746762363844,6936.775563388957,6952.9737890838105
NETSAT-1,2020-068W,2024-12-31T08:31:32.784384,15.1920245,0.0009476,97.8304,328.2272,68.461,291.7633,0,U,46506,999,23399,0.0008692,0.00018274,0.0,6886.386700638909,CubeSat,5687.197771565839,1.5797771587682885,515.3867006389091,6879.861160601384,6892.9122406764345
SNAP-3 ALICE,2015-058G,2024-12-31T10:15:12.405024,15.09143321,0.0128072,64.7677,62.04,243.1674,115.6305,0,U,40970,999,3540,0.0023826,0.00046161,0.0,6916.953413301826,CubeSat,5725.105540322212,1.5903070945339477,545.953413301826,6828.366607546986,7005.540219056665
SITRO-AIS 33,2024-039E,2025-01-01T03:15:50.609088,15.50123368,0.000803,97.4107,330.4963,208.0044,152.0777,0,U,59055,999,4700,0.0020068,0.00114464,0.0,6794.502547465874,CubeSat,5573.753009958728,1.5482647249885357,423.50254746587416,6789.046561920259,6799.95853301149
SEEDS II (CO-66),2008-021J,2024-12-31T16:02:11.554656,15.12036772,0.000549,97.7126,338.077,23.8385,336.3098,0,U,32791,999,90627,0.001627,0.00027992,0.0,6908.126355343242,CubeSat,5714.149912352371,1.5872638645423252,537.1263553432418,6904.333793974159,6911.918916712325
SITRO-AIS 27,2024-039T,2025-01-01T03:04:49.534176,14.86879158,0.0162357,95.3849,231.6681,20.6608,340.1078,0,U,59068,999,4548,0.0010918,0.00012399,0.0,6985.830737642158,CubeSat,5810.831863309609,1.614119962030447,614.830737642158,6872.410885535021,7099.250589749295
SWISSCUBE,2009-051B,2024-12-31T15:26:40.078752,14.60509912,0.0008256,98.4477,253.7997,69.3645,290.8439,0,U,35932,999,81136,0.0009843,4.731e-05,0.0,7069.665008161548,CubeSat,5915.745396322489,1.6432626100895802,698.665008161548,7063.82829273081,7075.501723592286
OPTICUBE 04,2016-067D,2025-01-01T01:51:17.211456,15.05518209,0.0018513,98.0854,180.9074,110.6144,249.7068,0,U,41851,999,44498,0.00059335,8.506e-05,0.0,6928.052439355376,CubeSat,5738.890925760542,1.5941363682668173,557.052439355376,6915.226535874397,6940.878342836355
FOX-1A (AO-85),2015-058D,2025-01-01T01:54:13.544352,14.85715402,0.0182443,64.7767,127.208,244.7605,113.4498,0,U,40967,999,3435,0.0012524,0.00014613,0.0,6989.478247096988,CubeSat,5815.383468843761,1.6153842969010448,618.4782470969876,6861.960109113476,7116.9963850805
SITRO-AIS 9 (SHCHUKIN),2023-091AM,2024-12-31T22:56:04.344576,15.18193701,0.0011379,97.5856,59.7611,143.44,216.7613,0,U,57201,999,8348,0.0014107,0.00028911,0.0,6889.436757931628,CubeSat,5690.9765746665835,1.5808268262962732,518.4367579316277,6881.597267844777,6897.276248018478
PROMETHEUS 2-1,2016-067G,2025-01-01T00:24:11.695392,15.31633024,0.0009739,98.0906,197.7067,89.4729,270.7626,0,U,41854,999,44585,0.0020683,0.00063644,0.0,6849.076654471864,CubeSat,5641.041067156672,1.5669558519879645,478.07665447186355,6842.406338718074,6855.746970225653
SITRO-AIS 34,2024-039H,2025-01-01T03:15:09.163008,15.50101735,0.0007994,97.4109,330.4987,208.2278,151.8541,0,U,59058,999,4700,0.0019547,0.0011136,0.0,6794.565762728206,CubeSat,5573.830796465346,1.548286332351485,423.5657627282062,6789.134186857481,6799.9973385989315
SITRO-AIS 8 (ANOKHIN),2023-091AD,2025-01-01T02:58:21.462528,15.1575941,0.0015486,97.5843,58.396,158.1278,202.0618,0,U,57193,999,8341,0.0013444,0.00025724,0.0,6896.811018873239,CubeSat,5700.116213164305,1.5833656147678625,525.8110188732389,6886.1306173294115,6907.491420417066
AEROCUBE 4.5A,2012-048K,2024-12-30T12:34:23.837664,15.21795555,0.0111027,64.6528,37.8514,317.9001,41.3633,0,U,38767,999,29021,0.0016017,0.00043329,0.0,6878.561646466735,CubeSat,5677.506915965045,1.5770852544347347,507.5616464667346,6802.191040074508,6954.93225285896
CANX-4,2014-034C,2024-12-31T15:27:25.939008,14.79437493,0.0012028,98.376,209.6642,281.8535,78.1326,0,U,40055,999,56573,0.00062925,4.647e-05,0.0,7009.237258549208,CubeSat,5840.060718399924,1.6222390884444233,638.2372585492076,7000.806547974625,7017.6679691237905
GRBBETA,2024-128C,2025-01-01T04:08:58.604928,15.0015615,0.0033663,61.9938,274.3611,19.3577,340.8782,0,U,60237,999,2626,0.0010683,0.00013391,0.0,6944.551402147658,CubeSat,5759.403638212836,1.59983434394801,573.5514021476583,6921.173958762608,6967.928845532708
SITRO-AIS 7 (FARTUSHNIY),2023-091AE,2025-01-01T01:01:46.642080,15.14813079,0.0015775,97.5845,58.0459,158.821,201.3678,0,U,57194,999,8338,0.001205,0.00022433,0.0,6899.683094551788,CubeSat,5703.677178375723,1.5843547717710342,528.6830945517877,6888.798844470132,6910.567344633443
SITRO-AIS 7 (FARTUSHNIY),2023-091AE,2025-01-01T01:01:46.642080,15.14813079,0.0015775,97.5845,58.0459,158.821,201.3678,0,U,57194,999,8338,0.001205,0.00022433,0.0,6899.683094551788,CubeSat,5703.677178375723,1.5843547717710342,528.6830945517877,6888.798844470132,6910.567344633443
BEESAT-1,2009-051C,2024-12-31T15:04:25.309344,14.60045994,0.0006696,98.4407,254.4097,80.7718,279.4238,0,U,35933,999,81142,0.0008501,4.037e-05,0.0,7071.162482078481,CubeSat,5917.625077362709,1.6437847437118636,700.1624820784809,7066.427631680481,7075.89733247648
